NORAD_CAT_ID,OBJECT_NAME,OBJECT_TYPE,EPOCH,MEAN_MOTION,ECCENTRICITY,INCLINATION,RA_OF_ASC_NODE,ARG_OF_PERICENTER,MEAN_ANOMALY,BSTAR,MEAN_MOTION_DOT,MEAN_MOTION_DDOT,TLE_LINE0,TLE_LINE1,TLE_LINE2,SEMIMAJOR_AXIS,PERIOD,APOGEE,PERIGEE,DECAYED
51109.0,STARLINK-3358,PAYLOAD,2024-03-06 01:23:38,15.08847306,0.000119,53.2185,342.521,93.5553,266.5575,0.00014672,2.048e-05,0.0,0 STARLINK-3358,1 51109U 22005F   24066.05809013  .00002048  00000-0  14672-3 0  9996,2 51109  53.2185 342.5210 0001190  93.5553 266.5575 15.08847306119234,6917.858,95.437,540.546,538.9,0.0
51109.0,STARLINK-3358,PAYLOAD,2024-03-06 04:34:25,15.08849935,0.000113,53.2179,341.9228,83.6152,276.4969,0.00019213,2.772e-05,0.0,0 STARLINK-3358,1 51109U 22005F   24066.19056871  .00002772  00000-0  19213-3 0  9997,2 51109  53.2179 341.9228 0001130  83.6152 276.4969 15.08849935117918,6917.85,95.437,540.497,538.933,0.0
51109.0,STARLINK-3358,PAYLOAD,2024-03-07 02:49:49,15.08840452,0.0001232,53.2186,337.763,63.7244,296.3874,0.00018431,2.647e-05,0.0,0 STARLINK-3358,1 51109U 22005F   24067.11793628  .00002647  00000-0  18431-3 0  9990,2 51109  53.2186 337.7630 0001232  63.7244 296.3874 15.08840452119395,6917.879,95.438,540.596,538.892,0.0
51109.0,STARLINK-3358,PAYLOAD,2024-03-07 10:46:44,15.08852563,0.0001198,53.2188,336.2768,72.0973,288.015,0.00032443,4.881e-05,0.0,0 STARLINK-3358,1 51109U 22005F   24067.44913095  .00004881  00000-0  32443-3 0  9999,2 51109  53.2188 336.2768 0001198  72.0973 288.0150 15.08852563118105,6917.842,95.437,540.536,538.878,0.0
51109.0,STARLINK-3358,PAYLOAD,2024-03-08 02:40:36,15.08837846,0.000146,53.2191,333.2997,76.7886,283.3269,-3.0197e-05,-7.68e-06,0.0,0 STARLINK-3358,1 51109U 22005F   24068.11153880 -.00000768  00000-0 -30197-4 0  9999,2 51109  53.2191 333.2997 0001460  76.7886 283.3269 15.08837846119541,6917.887,95.438,540.762,538.742,0.0
51109.0,STARLINK-3358,PAYLOAD,2024-03-08 10:37:32,15.08845481,0.0001515,53.2192,331.816,74.1108,286.0051,0.00014089,1.955e-05,0.0,0 STARLINK-3358,1 51109U 22005F   24068.44273470  .00001955  00000-0  14089-3 0  9991,2 51109  53.2192 331.8160 0001515  74.1108 286.0051 15.08845481119596,6917.864,95.437,540.777,538.681,0.0
51109.0,STARLINK-3358,PAYLOAD,2024-03-09 02:31:23,15.08840545,0.000137,53.2189,328.8403,77.3775,282.737,0.00022479,3.291e-05,0.0,0 STARLINK-3358,1 51109U 22005F   24069.10513816  .00003291  00000-0  22479-3 0  9993,2 51109  53.2189 328.8403 0001370  77.3775 282.7370 15.08840545119696,6917.879,95.438,540.691,538.796,0.0
51109.0,STARLINK-3358,PAYLOAD,2024-03-09 10:28:18,15.08858674,0.0001229,53.2191,327.3527,76.5733,283.5396,0.00039883,6.068e-05,0.0,0 STARLINK-3358,1 51109U 22005F   24069.43632895  .00006068  00000-0  39883-3 0  9990,2 51109  53.2191 327.3527 0001229  76.5733 283.5396 15.08858674119743,6917.823,95.436,540.539,538.838,0.0
51109.0,STARLINK-3358,PAYLOAD,2024-03-09 23:11:24,15.08836863,7.04e-05,53.2196,324.9735,79.7574,280.3497,4.4064e-05,4.14e-06,0.0,0 STARLINK-3358,1 51109U 22005F   24069.96625600  .00000414  00000-0  44064-4 0  9991,2 51109  53.2196 324.9735 0000704  79.7574 280.3497 15.08836863118480,6917.89,95.438,540.242,539.268,0.0
51109.0,STARLINK-3358,PAYLOAD,2024-03-10 10:19:05,15.08854535,0.0001161,53.2189,322.892,97.6419,262.4705,0.00027004,4.014e-05,0.0,0 STARLINK-3358,1 51109U 22005F   24070.42992825  .00004014  00000-0  27004-3 0  9994,2 51109  53.2189 322.8920 0001161  97.6419 262.4705 15.08854535119895,6917.836,95.437,540.504,538.898,0.0
51109.0,STARLINK-3358,PAYLOAD,2024-03-10 21:26:48,15.08839675,0.0001573,53.218,320.8119,92.2593,267.858,1.4724e-05,-5.4e-07,0.0,0 STARLINK-3358,1 51109U 22005F   24070.89361454 -.00000054  00000-0  14724-4 0  9990,2 51109  53.2180 320.8119 0001573  92.2593 267.8580 15.08839675119961,6917.881,95.438,540.835,538.658,0.0
51109.0,STARLINK-3358,PAYLOAD,2024-03-10 23:02:11,15.08839524,0.0001383,53.2164,320.5144,97.2544,262.8605,2.1553e-05,5.5e-07,0.0,0 STARLINK-3358,1 51109U 22005F   24070.95985431  .00000055  00000-0  21553-4 0  9992,2 51109  53.2164 320.5144 0001383  97.2544 262.8605 15.08839524118637,6917.882,95.438,540.704,538.79,0.0
51109.0,STARLINK-3358,PAYLOAD,2024-03-11 10:09:53,15.08845243,0.0001457,53.2182,318.4327,95.4357,264.6801,0.0001039,1.366e-05,0.0,0 STARLINK-3358,1 51109U 22005F   24071.42353176  .00001366  00000-0  10390-3 0  9992,2 51109  53.2182 318.4327 0001457  95.4357 264.6801 15.08845243118701,6917.864,95.437,540.737,538.721,0.0
51109.0,STARLINK-3358,PAYLOAD,2024-03-12 16:22:13,15.08838101,0.0002155,53.2169,312.7828,104.0828,256.0404,0.00019079,2.749e-05,0.0,0 STARLINK-3358,1 51109U 22005F   24072.68210173  .00002749  00000-0  19079-3 0  9999,2 51109  53.2169 312.7828 0002155 104.0828 256.0404 15.08838101120235,6917.886,95.438,541.242,538.26,0.0
51109.0,STARLINK-3358,PAYLOAD,2024-03-13 08:16:04,15.08846059,0.0001865,53.2178,309.8125,94.5578,265.5627,0.00026952,4.005e-05,0.0,0 STARLINK-3358,1 51109U 22005F   24073.34449900  .00004005  00000-0  26952-3 0  9990,2 51109  53.2178 309.8125 0001865  94.5578 265.5627 15.08846059118997,6917.862,95.437,541.017,538.437,0.0
51109.0,STARLINK-3358,PAYLOAD,2024-03-14 01:45:19,15.08834628,0.0002024,53.2144,306.5376,85.0137,275.1086,4.1055e-05,3.65e-06,0.0,0 STARLINK-3358,1 51109U 22005F   24074.07314594  .00000365  00000-0  41055-4 0  9998,2 51109  53.2144 306.5376 0002024  85.0137 275.1086 15.08834628120444,6917.897,95.438,541.162,538.362,0.0
51109.0,STARLINK-3358,PAYLOAD,2024-03-14 22:25:20,15.08838132,0.0001206,53.2171,302.6746,87.831,272.282,-1.6124e-05,-5.44e-06,0.0,0 STARLINK-3358,1 51109U 22005F   24074.93426049 -.00000544  00000-0 -16124-4 0  9992,2 51109  53.2171 302.6746 0001206  87.8310 272.2820 15.08838132119239,6917.886,95.438,540.585,538.917,0.0
51109.0,STARLINK-3358,PAYLOAD,2024-03-15 00:00:43,15.08839463,0.0001127,53.2172,302.3766,81.4782,278.6338,1.5152e-05,-4.7e-07,0.0,0 STARLINK-3358,1 51109U 22005F   24075.00049983 -.00000047  00000-0  15152-4 0  9996,2 51109  53.2172 302.3766 0001127  81.4782 278.6338 15.08839463120586,6917.882,95.438,540.527,538.967,0.0
51109.0,STARLINK-3358,PAYLOAD,2024-03-15 22:16:07,15.08845089,0.0001351,53.2165,298.2135,83.4034,276.7112,4.6559e-05,4.53e-06,0.0,0 STARLINK-3358,1 51109U 22005F   24075.92786230  .00000453  00000-0  46559-4 0  9995,2 51109  53.2165 298.2135 0001351  83.4034 276.7112 15.08845089119388,6917.865,95.437,540.664,538.795,0.0
51109.0,STARLINK-3358,PAYLOAD,2024-03-15 23:51:30,15.08848152,0.0001355,53.2167,297.9161,81.8544,278.2602,5.7007e-05,6.2e-06,0.0,0 STARLINK-3358,1 51109U 22005F   24075.99410092  .00000620  00000-0  57007-4 0  9998,2 51109  53.2167 297.9161 0001355  81.8544 278.2602 15.08848152119393,6917.855,95.437,540.658,538.783,0.0
51109.0,STARLINK-3358,PAYLOAD,2024-03-16 20:31:31,15.08839895,0.0001297,53.2162,294.05,93.0137,267.1004,0.00010239,1.342e-05,0.0,0 STARLINK-3358,1 51109U 22005F   24076.85522494  .00001342  00000-0  10239-3 0  9991,2 51109  53.2162 294.0500 0001297  93.0137 267.1004 15.08839895120862,6917.881,95.438,540.643,538.848,0.0
51109.0,STARLINK-3358,PAYLOAD,2024-03-16 22:06:54,15.08839759,0.0001288,53.2162,293.7527,91.935,268.1789,9.3983e-05,1.208e-05,0.0,0 STARLINK-3358,1 51109U 22005F   24076.92146496  .00001208  00000-0  93983-4 0  9992,2 51109  53.2162 293.7527 0001288  91.9350 268.1789 15.08839759119533,6917.881,95.438,540.637,538.855,0.0
51109.0,STARLINK-3358,PAYLOAD,2024-03-16 23:42:17,15.08841425,0.0001288,53.2163,293.4552,92.1972,267.9168,0.00011415,1.529e-05,0.0,0 STARLINK-3358,1 51109U 22005F   24076.98770500  .00001529  00000-0  11415-3 0  9992,2 51109  53.2163 293.4552 0001288  92.1972 267.9168 15.08841425119544,6917.876,95.437,540.632,538.85,0.0
51109.0,STARLINK-3358,PAYLOAD,2024-03-17 20:22:18,15.08844047,0.0001292,53.2155,289.5889,93.1624,266.9516,0.00013882,1.922e-05,0.0,0 STARLINK-3358,1 51109U 22005F   24077.84882384  .00001922  00000-0  13882-3 0  9999,2 51109  53.2155 289.5889 0001292  93.1624 266.9516 15.08844047119677,6917.868,95.437,540.627,538.839,0.0
51109.0,STARLINK-3358,PAYLOAD,2024-03-17 23:33:04,15.08847925,0.0001274,53.2155,288.9932,95.8998,264.214,0.00018411,2.644e-05,0.0,0 STARLINK-3358,1 51109U 22005F   24077.98130144  .00002644  00000-0  18411-3 0  9999,2 51109  53.2155 288.9932 0001274  95.8998 264.2140 15.08847925121037,6917.856,95.437,540.603,538.84,0.0
51109.0,STARLINK-3358,PAYLOAD,2024-03-18 20:13:05,15.08842851,0.0001623,53.2174,285.1221,68.9851,291.1315,0.00014471,2.016e-05,0.0,0 STARLINK-3358,1 51109U 22005F   24078.84242562  .00002016  00000-0  14471-3 0  9998,2 51109  53.2174 285.1221 0001623  68.9851 291.1315 15.08842851121165,6917.872,95.437,540.859,538.614,0.0
51109.0,STARLINK-3358,PAYLOAD,2024-03-19 23:14:38,15.08848599,0.0001392,53.2169,280.069,99.677,260.4379,0.00013605,1.878e-05,0.0,0 STARLINK-3358,1 51109U 22005F   24079.96849886  .00001878  00000-0  13605-3 0  9997,2 51109  53.2169 280.0690 0001392  99.6770 260.4379 15.08848599121330,6917.854,95.437,540.682,538.756,0.0
51109.0,STARLINK-3358,PAYLOAD,2024-03-20 13:33:06,15.08840624,0.0001433,53.2171,277.3917,85.1592,274.9564,5.3662e-05,5.66e-06,0.0,0 STARLINK-3358,1 51109U 22005F   24080.56466332  .00000566  00000-0  53662-4 0  9997,2 51109  53.2171 277.3917 0001433  85.1592 274.9564 15.08840624120080,6917.878,95.438,540.735,538.752,0.0
51109.0,STARLINK-3358,PAYLOAD,2024-03-20 19:54:40,15.08831711,0.0001228,53.2173,276.2019,100.4939,259.6192,-1.6966e-05,-5.58e-06,0.0,0 STARLINK-3358,1 51109U 22005F   24080.82963081 -.00000558  00000-0 -16966-4 0  9998,2 51109  53.2173 276.2019 0001228 100.4939 259.6192 15.08831711121468,6917.906,95.438,540.62,538.921,0.0
51109.0,STARLINK-3358,PAYLOAD,2024-03-21 13:23:54,15.08844582,0.0001477,53.2184,272.9416,122.6279,237.4856,-0.00014602,-2.611e-05,0.0,0 STARLINK-3358,1 51109U 22005F   24081.55827086 -.00002611  00000-0 -14602-3 0  9999,2 51109  53.2184 272.9416 0001477 122.6279 237.4856 15.08844582121576,6917.866,95.437,540.753,538.71,0.0
